{
  "type": "FeatureCollection",
  "features": [
    {
      "type": "Feature",
      "properties": {
        "norad_id": 31890,
        "name": "FENGYUN 1C DEB",
        "group": "fengyun-1c-debris",
        "lat": -12.344057326618241,
        "lon": 171.89562784397128,
        "alt_km": 839.427971528441,
        "timestamp": "2025-12-08T03:50:07.281566+00:00",
        "meta_object_name": "FENGYUN 1C DEB",
        "meta_object_id": "1999-025CKR",
        "meta_epoch": "2025-12-07T06:29:01.064544",
        "meta_mean_motion": 14.1012929,
        "meta_eccentricity": 0.00714502,
        "meta_inclination": 98.7181,
        "meta_ra_of_asc_node": 352.9577,
        "meta_arg_of_pericenter": 257.7825,
        "meta_mean_anomaly": 101.5338,
        "meta_ephemeris_type": 0,
        "meta_classification_type": "U",
        "meta_norad_cat_id": 31890,
        "meta_element_set_no": 999,
        "meta_rev_at_epoch": 64075,
        "meta_bstar": 0.00020389632,
        "meta_mean_motion_dot": 3.26e-06,
        "meta_mean_motion_ddot": 0,
        "tle_line1": "1 31890U 99025CKR 25341.27015121  .00000326  00000+0  20390-3 0  9997",
        "tle_line2": "2 31890  98.7181 352.9577 0071450 257.7825 101.5338 14.10129290640750"
      },
      "geometry": {
        "type": "Point",
        "coordinates": [
          171.89562784397128,
          -12.344057326618241
        ]
      }
    },
    {
      "type": "Feature",
      "properties": {
        "norad_id": 31891,
        "name": "FENGYUN 1C DEB",
        "group": "fengyun-1c-debris",
        "lat": 74.60569334320101,
        "lon": -145.6254635857033,
        "alt_km": 1010.7582271971678,
        "timestamp": "2025-12-08T03:50:07.281576+00:00",
        "meta_object_name": "FENGYUN 1C DEB",
        "meta_object_id": "1999-025CKS",
        "meta_epoch": "2025-12-06T00:20:55.229568",
        "meta_mean_motion": 13.66193809,
        "meta_eccentricity": 0.0224822,
        "meta_inclination": 99.4024,
        "meta_ra_of_asc_node": 355.2939,
        "meta_arg_of_pericenter": 200.6432,
        "meta_mean_anomaly": 158.5519,
        "meta_ephemeris_type": 0,
        "meta_classification_type": "U",
        "meta_norad_cat_id": 31891,
        "meta_element_set_no": 999,
        "meta_rev_at_epoch": 92318,
        "meta_bstar": 0.00081038713,
        "meta_mean_motion_dot": 7.52e-06,
        "meta_mean_motion_ddot": 0,
        "tle_line1": "1 31891U 99025CKS 25340.01452812  .00000752  00000+0  81039-3 0  9991",
        "tle_line2": "2 31891  99.4024 355.2939 0224822 200.6432 158.5519 13.66193809923188"
      },
      "geometry": {
        "type": "Point",
        "coordinates": [
          -145.6254635857033,
          74.60569334320101
        ]
      }
    },
    {
      "type": "Feature",
      "properties": {
        "norad_id": 31892,
        "name": "FENGYUN 1C DEB",
        "group": "fengyun-1c-debris",
        "lat": -69.10863831668236,
        "lon": -53.86189839783001,
        "alt_km": 667.3932817717741,
        "timestamp": "2025-12-08T03:50:07.281586+00:00",
        "meta_object_name": "FENGYUN 1C DEB",
        "meta_object_id": "1999-025CKT",
        "meta_epoch": "2025-12-06T17:19:53.766912",
        "meta_mean_motion": 14.41156255,
        "meta_eccentricity": 0.01986119,
        "meta_inclination": 99.2881,
        "meta_ra_of_asc_node": 149.9643,
        "meta_arg_of_pericenter": 304.4066,
        "meta_mean_anomaly": 53.8482,
        "meta_ephemeris_type": 0,
        "meta_classification_type": "U",
        "meta_norad_cat_id": 31892,
        "meta_element_set_no": 999,
        "meta_rev_at_epoch": 64819,
        "meta_bstar": 0.001005312,
        "meta_mean_motion_dot": 4.04e-05,
        "meta_mean_motion_ddot": 0,
        "tle_line1": "1 31892U 99025CKT 25340.72215008  .00004040  00000+0  10053-2 0  9995",
        "tle_line2": "2 31892  99.2881 149.9643 0198611 304.4066  53.8482 14.41156255648199"
      },
      "geometry": {
        "type": "Point",
        "coordinates": [
          -53.86189839783001,
          -69.10863831668236
        ]
      }
    },
    {
      "type": "Feature",
      "properties": {
        "norad_id": 31893,
        "name": "FENGYUN 1C DEB",
        "group": "fengyun-1c-debris",
        "lat": -67.31889853822969,
        "lon": 97.50580784369227,
        "alt_km": 689.9475259378542,
        "timestamp": "2025-12-08T03:50:07.281834+00:00",
        "meta_object_name": "FENGYUN 1C DEB",
        "meta_object_id": "1999-025CKU",
        "meta_epoch": "2025-12-07T03:46:52.411584",
        "meta_mean_motion": 14.63708862,
        "meta_eccentricity": 0.01754005,
        "meta_inclination": 99.0696,
        "meta_ra_of_asc_node": 298.8742,
        "meta_arg_of_pericenter": 343.8606,
        "meta_mean_anomaly": 29.0402,
        "meta_ephemeris_type": 0,
        "meta_classification_type": "U",
        "meta_norad_cat_id": 31893,
        "meta_element_set_no": 999,
        "meta_rev_at_epoch": 98323,
        "meta_bstar": 0.00075236906,
        "meta_mean_motion_dot": 4.834e-05,
        "meta_mean_motion_ddot": 0,
        "tle_line1": "1 31893U 99025CKU 25341.15755106  .00004834  00000+0  75237-3 0  9999",
        "tle_line2": "2 31893  99.0696 298.8742 0175400 343.8606  29.0402 14.63708862983239"
      },
      "geometry": {
        "type": "Point",
        "coordinates": [
          97.50580784369227,
          -67.31889853822969
        ]
      }
    },
    {
      "type": "Feature",
      "properties": {
        "norad_id": 31895,
        "name": "FENGYUN 1C DEB",
        "group": "fengyun-1c-debris",
        "lat": 45.566903174217316,
        "lon": -159.3202005742713,
        "alt_km": 1023.688781016017,
        "timestamp": "2025-12-08T03:50:07.281846+00:00",
        "meta_object_name": "FENGYUN 1C DEB",
        "meta_object_id": "1999-025CKW",
        "meta_epoch": "2025-12-04T08:23:00.168864",
        "meta_mean_motion": 13.75460226,
        "meta_eccentricity": 0.02263483,
        "meta_inclination": 99.1028,
        "meta_ra_of_asc_node": 7.6273,
        "meta_arg_of_pericenter": 251.6022,
        "meta_mean_anomaly": 106.0398,
        "meta_ephemeris_type": 0,
        "meta_classification_type": "U",
        "meta_norad_cat_id": 31895,
        "meta_element_set_no": 999,
        "meta_rev_at_epoch": 61781,
        "meta_bstar": 0.0039968239,
        "meta_mean_motion_dot": 4.593e-05,
        "meta_mean_motion_ddot": 0,
        "tle_line1": "1 31895U 99025CKW 25338.34930751  .00004593  00000+0  39968-2 0  9991",
        "tle_line2": "2 31895  99.1028   7.6273 0226348 251.6022 106.0398 13.75460226617811"
      },
      "geometry": {
        "type": "Point",
        "coordinates": [
          -159.3202005742713,
          45.566903174217316
        ]
      }
    },
    {
      "type": "Feature",
      "properties": {
        "norad_id": 31898,
        "name": "FENGYUN 1C DEB",
        "group": "fengyun-1c-debris",
        "lat": -68.7910525892387,
        "lon": 3.368498106552673,
        "alt_km": 576.1223553555355,
        "timestamp": "2025-12-08T03:50:07.281856+00:00",
        "meta_object_name": "FENGYUN 1C DEB",
        "meta_object_id": "1999-025CKZ",
        "meta_epoch": "2025-12-01T10:24:18.716544",
        "meta_mean_motion": 14.68161711,
        "meta_eccentricity": 0.01444897,
        "meta_inclination": 98.7075,
        "meta_ra_of_asc_node": 199.4746,
        "meta_arg_of_pericenter": 255.0362,
        "meta_mean_anomaly": 103.4807,
        "meta_ephemeris_type": 0,
        "meta_classification_type": "U",
        "meta_norad_cat_id": 31898,
        "meta_element_set_no": 999,
        "meta_rev_at_epoch": 65546,
        "meta_bstar": 0.0015287555,
        "meta_mean_motion_dot": 0.00010251,
        "meta_mean_motion_ddot": 0,
        "tle_line1": "1 31898U 99025CKZ 25335.43354996  .00010251  00000+0  15288-2 0  9999",
        "tle_line2": "2 31898  98.7075 199.4746 0144489 255.0362 103.4807 14.68161711655465"
      },
      "geometry": {
        "type": "Point",
        "coordinates": [
          3.368498106552673,
          -68.7910525892387
        ]
      }
    },
    {
      "type": "Feature",
      "properties": {
        "norad_id": 31899,
        "name": "FENGYUN 1C DEB",
        "group": "fengyun-1c-debris",
        "lat": -75.26183623033455,
        "lon": 169.26072172861677,
        "alt_km": 963.647463984008,
        "timestamp": "2025-12-08T03:50:07.281866+00:00",
        "meta_object_name": "FENGYUN 1C DEB",
        "meta_object_id": "1999-025CLA",
        "meta_epoch": "2025-12-07T00:33:12.035808",
        "meta_mean_motion": 13.83487543,
        "meta_eccentricity": 0.01833749,
        "meta_inclination": 102.0834,
        "meta_ra_of_asc_node": 42.3236,
        "meta_arg_of_pericenter": 171.0464,
        "meta_mean_anomaly": 189.4024,
        "meta_ephemeris_type": 0,
        "meta_classification_type": "U",
        "meta_norad_cat_id": 31899,
        "meta_element_set_no": 999,
        "meta_rev_at_epoch": 67485,
        "meta_bstar": 0.0022774181,
        "meta_mean_motion_dot": 2.792e-05,
        "meta_mean_motion_ddot": 0,
        "tle_line1": "1 31899U 99025CLA 25341.02305597  .00002792  00000+0  22774-2 0  9994",
        "tle_line2": "2 31899 102.0834  42.3236 0183374 171.0464 189.4024 13.83487543674853"
      },
      "geometry": {
        "type": "Point",
        "coordinates": [
          169.26072172861677,
          -75.26183623033455
        ]
      }
    }
  ]
}